1 05213U 71041D   15256.07470963  .00000003  00000-0  12448-3 0  9994
2 05213  74.0132 102.9927 0042958 234.1487 295.4699 12.51091982 25781
1 05214U 71041E   15256.45033786 -.00000018  00000-0 -13771-4 0  9994
2 05214  74.0121 249.0440 0031083  65.7248  47.1693 12.47435567 19890
1 05215U 71041F   15255.90187975 -.00000026  00000-0 -54018-4 0  9992
2 05215  74.0165 182.3840 0078079 264.5570 161.1824 12.58011179 36900
1 05216U 71041G   15257.19763227 -.00000036  00000-0 -11187-3 0  9996
2 05216  74.0156  42.1868 0095058 104.6918 319.7579 12.61391421 42573
1 05217U 71041H   15256.19662659  .00000008  00000-0  14676-3 0  9996
2 05217  74.0171 323.7481 0059422  69.6912  25.6843 12.54522983 31306
1 05218U 71041J   15257.19600220 -.00000016  00000-0 -13721-4 0  9996
2 05218  74.0281 146.9416 0066147  94.0483  21.1273 12.32183797211084
1 05220U 70025KG  15257.19961161 -.00000441  00000-0 -11177-2 0  9997
2 05220  99.8580 148.1975 0391288 124.6286  28.3173 12.89254853124722
1 05222U 71015AW  15257.01930535  .00000266  00000-0  11939-3 0  9991
2 05222  65.7242 111.0430 0722874 286.6150  65.6764 13.45967276131028
1 05225U 70102D   15256.65142362  .00000176  00000-0  16257-3 0  9990
2 05225  74.0255 339.5244 0016330  82.0302  69.8096 13.89664138261081
1 05238U 71046A   15256.78858409 -.00000016  00000-0  73342-5 0  9996
2 05238  74.0203 187.5254 0015741 285.7977 104.2365 13.72041917218738
1 05239U 71046B   15257.17937089 -.00000037  00000-0 -15688-4 0  9995
2 05239  74.0211 118.0333 0011144 194.7808 259.5874 13.73833956221433
1 05240U 70089BF  15255.58295956  .00000459  00000-0  49650-3 0  9997
2 05240  62.8734 349.7501 0865368 209.9792 144.8859 12.77047633 66917
1 05265U 65065Q   15256.02874598  .00000104  00000-0  16985-3 0  9999
2 05265  90.0922 250.4084 0040446  33.2551  27.5242 13.41293820445864
1 05272U 71015BB  15256.34048627  .00000311  00000-0  14999-3 0  9993
2 05272  65.5591 219.4399 0767392 126.9425 240.4442 13.32672280121423
1 05277U 71015BE  15255.54655573  .00000115  00000-0  86145-4 0  9998
2 05277  65.7348 302.2340 0919722 153.6994 211.3920 12.97915863751515
1 05280U 71015BF  15256.55955263  .00000610  00000-0  24718-3 0  9990
2 05280  65.6601 107.1063 0784070 196.4997 160.9149 13.31647061118990
1 05300U 71035C   15256.42523479  .00002579  00000-0  25101-3 0  9994
2 05300  74.0209 261.6699 0007889 304.1078  55.9356 14.93096575347596
1 05301U 71035D   15255.79340659  .00000792  00000-0  15182-3 0  9994
2 05301  74.0320 298.9786 0011031  32.8727 327.3126 14.65465325334343
1 05322U 68097CJ  15256.75709420 -.00000071  00000-0  21133-4 0  9998
2 05322  61.2864 349.6783 0752494 107.4594 261.0034 13.11071212197475
1 05337U 70089BS  15257.08447360  .00000731  00000-0  68024-3 0  9998
2 05337  62.9516 287.1848 0808062 347.6780  10.5446 12.91526057644547
1 05347U 70025KL  15256.96750491  .00000310  00000-0  32980-3 0  9992
2 05347  99.9900 243.8409 0045747 359.2938  21.7133 13.82435735213726
1 05349U 70025KN  15257.18163347  .00001404  00000-0  10403-2 0  9997
2 05349  99.8455 124.2876 0074618   3.0154 357.1441 13.95803823198827
1 05358U 70086D   15256.23103465  .00002071  00000-0  18069-3 0  9992
2 05358  74.0276 319.2781 0002785  43.8112 316.3294 14.97580541421347
1 05359U 70025KQ  15256.26995683  .00000273  00000-0  36946-3 0  9996
2 05359  99.9693 358.1159 0002747 326.7579  59.4442 13.69337161254863
1  5360U 71024C   15255.34687051 +.00000003 +00000-0 -41654-4 0  9998
2  5360 088.2887 037.8345 0043217 135.9011 252.1363 12.67845153056537
1 05361U 66025G   15257.08366145  .00001655  00000-0  60797-3 0  9996
2 05361 144.6205 350.2061 0033273 250.6248 109.0841 14.21483608806375
1 05384U 71067N   15255.97053638  .00000133  00000-0  49477-4 0  9992
2 05384  87.6317  17.5954 0079224 227.9914 131.4514 14.23517316284111
1 05387U 70025KS  15256.49121407  .00000553  00000-0  37468-2 0  9997
2 05387 101.0605  97.5358 0628691  58.6804 334.4847 12.05868979847410
1 05388U 70025KT  15256.58032928  .00000291  00000-0  63159-3 0  9993
2 05388  99.7866 295.8074 0137740 292.4264 223.1811 13.34692062201273
1 05389U 70025KU  15256.00728161  .00000135  00000-0  44843-3 0  9998
2 05389  99.8972 174.0821 0204930  17.0683  43.4197 13.10742682173044
1 05390U 70025KV  15257.22796199 -.00000072  00000-0 -21673-4 0  9990
2 05390 100.0365 338.6911 0054970  62.9873 358.7318 13.80391061266589
1 05392U 70025KX  15256.07465082  .00000653  00000-0  45900-3 0  9999
2 05392 100.0676  95.9816 0050341  47.8014 312.7405 14.01866996292955
1 05395U 71067K   15257.21334513  .00000342  00000-0  10773-3 0  9995
2 05395  87.6233 329.9950 0061828 125.8975 234.7985 14.36565473293097
1 05397U 71067B   15256.41867206  .00000075  00000-0  27380-4 0  9994
2 05397  87.6276  45.2763 0081765 198.9950 160.8184 14.17367458277917
1 05398U 71067E   15256.52646331  .00000285  00000-0  95137-4 0  9999
2 05398  87.6278 343.4150 0061838 242.7067 116.7824 14.33256489310726
1 05414U 71015BL  15257.07380333  .00000029  00000-0  68966-4 0  9995
2 05414  66.7673 124.1513 0079102 135.5357 225.2114 14.01724730274779
1  5416U 71015BN  15255.72745088 +.00000252 +00000-0 +34903-3 0  9990
2  5416 065.7908 025.0507 0058178 058.3447 053.7626 13.74056289751920
1 05422U 70025LA  15255.74748343  .00001050  00000-0  50780-3 0  9994
2 05422 100.0208 181.9332 0105350 168.0379 192.3330 14.18291268297327
1  5426U 71069C   15255.76760771 +.00000659 +00000-0 +14046-3 0  9997
2  5426 049.5342 096.9205 0078881 085.3271 275.6658 14.69368995307903
1 05430U 69082HW  15256.38049309  .00000398  00000-0  22583-3 0  9995
2 05430  70.1084  41.4678 0064158 287.8958  71.5169 14.15899521356553
1 05435U 71071A   15257.18849428  .00000080  00000-0  59922-4 0  9996
2 05435  50.1416 168.5790 0111248 299.8429  59.1478 14.54654270324126
1 05438U 71071B   15257.17220868  .00000032  00000-0  48588-4 0  9992
2 05438  50.1480  32.9579 0108462  31.8505 328.8923 14.57100707326095
1  5443U 67114E   15255.65652015 -.00000026 +00000-0 +10553-3 0  9999
2  5443 101.4542 318.0741 0061755 240.8572 275.1961 12.56706086193501
1 05446U 70025LE  15255.51403763  .00000957  00000-0  11859-2 0  9997
2 05446 100.4743  98.9195 0089084   3.7110  25.8353 13.66390688237718
1  5447U 70067D   15255.84816775 +.00000224 +00000-0 +39628-3 0  9993
2  5447 089.8238 289.7738 0313035 197.9360 228.2959 13.22746795168068
1 05485U 71080A   15256.28735464  .00000022  00000-0  21891-5 0  9996
2 05485  32.0546 185.1644 0640096 338.5917  18.8993 12.74107985 47951
1 05498U 71080B   15256.18858559  .00000004  00000-0 -30503-4 0  9990
2 05498  32.0280 276.8729 0574281 122.3223 243.4297 12.88312911 70572
1 05502U 70025LG  15256.61167187  .00002263  00000-0  85023-3 0  9996
2 05502  99.5411 322.5323 0031178  79.1891 281.2796 14.32453233290802
1 05507U 70025LL  15255.98601990  .00001094  00000-0  62041-3 0  9991
2 05507  99.3140  64.4936 0031610  17.2141 343.0093 14.12022930294803
1 05515U 65108M   15255.44304845 -.00000087  00000-0  00000+0 0  9991
2 05515  27.9383 303.1331 6605398 123.2762 359.1986  2.65782672114736
1 05519U 69082HY  15256.25304420  .00000313  00000-0  12311-3 0  9992
2 05519  70.0568 327.8059 0053624 346.0361  13.9280 14.36966665386085
1 05527U 71015BR  15256.38228582  .00000844  00000-0  59596-3 0  9993
2 05527  66.8986 347.6619 0095456 330.9239  28.6548 14.00544918238426
1 05529U 71015BT  15257.00003518  .00000447  00000-0  19756-3 0  9998
2 05529  66.8447 209.3555 0062470 201.0034 158.8499 14.30960155296067
1 05531U 71015BV  15256.46248677  .00000588  00000-0  27121-3 0  9998
2 05531  66.6647  59.0607 0038592 324.0217  35.8282 14.27570354290933
1 05547U 71086A   15257.14058259 -.00000030  00000-0 -69966-4 0  9992
2 05547  74.0297  32.9086 0120361 291.2061 178.5309 12.62072790 23581
1 05548U 71086B   15255.90422845 -.00000029  00000-0 -79382-4 0  9992
2 05548  74.0289 192.8343 0102621 119.6561 298.2909 12.58167676 17124
1  5549U 71086C   15255.78562704 -.00000004 +00000-0 +77251-4 0  9993
2  5549 074.0317 345.1051 0084158 295.2310 211.0779 12.54402141010893
1 05550U 71086D   15256.65731696  .00000015  00000-0  20100-3 0  9991
2 05550  74.0280 137.6025 0065557 116.5048 272.4316 12.50567788  5116
1 05551U 71086E   15256.81856664  .00000006  00000-0  15111-3 0  9999
2 05551  74.0271 291.1226 0049772 301.5377 172.4507 12.46711440999000
1 05552U 71086F   15256.80559095 -.00000024  00000-0 -62100-4 0  9990
2 05552  74.0253 247.6775 0037538 357.5603  69.2410 12.38684841986160
1 05553U 71086G   15256.15483706  .00000002  00000-0  12571-3 0  9994
2 05553  74.0257  92.6445 0042522 152.7126 300.5626 12.42649055992420
1 05554U 71086H   15257.18647117 -.00000025  00000-0 -76949-4 0  9994
2 05554  74.0272  59.9081 0053333 217.3206 255.7547 12.34262947979126
1 05555U 71086J   15255.73947157 -.00000010  00000-0  41516-4 0  9996
2 05555  74.0234 342.2197 0075951 224.4814 305.7905 12.26921959967021
1 05556U 71087B   15257.15963108  .00000014  00000-0  27223-4 0  9992
2 05556  99.1206  47.7726 0061932 254.7673 104.6650 14.22830729275899
1 05557U 71087A   15256.22161131  .00000062  00000-0  44125-4 0  9999
2 05557  99.0391 149.7018 0052562  81.6900 279.0235 14.26901726280061
1 05560U 71089A   15256.87444570  .00000128  00000-0  34906-4 0  9996
2 05560  92.7228 356.7776 0016930  25.7073 334.4969 14.47688602308197
1 05580U 71093A   15256.82964025  .00000405  00000-0  90072-4 0  9994
2 05580  82.0394 106.9483 0531450 232.1180 123.0791 13.93630250201460
1 05581U 71093B   15257.18215726  .00000390  00000-0  87305-4 0  9990
2 05581  82.0415 134.8856 0537066 326.2489  30.5522 13.92332626199358
1 05587U 71095A   15256.49399345 -.00000125  00000-0  00000+0 0  9990
2 05587  10.4441 315.5099 0007998 215.6035 254.4805  1.00284725 82599
1 05588U 71095B   15250.06004999 -.00000184  00000-0  00000+0 0  9991
2 05588  10.4063 315.8723 0003111 253.0403 137.9320  1.00308456159214
